TIROS N [P]             
1 11060U 78096A   08198.55290225 -.00000002  00000-0  20985-4 0  9467
2 11060  98.8794 162.2913 0009876 254.5043 105.5040 14.17455440751409
NOAA 1 [-]              
1 04793U 70106A   08197.96242340 -.00000031  00000-0  10000-3 0   464
2 04793 102.0335 177.2317 0032305 357.5779   2.5133 12.53919951720775
NOAA 2 [-]              
1 06235U 72082A   08198.49543329 -.00000027  00000-0  10000-3 0  1435
2 06235 101.4309 223.4455 0003351 218.2049 141.8788 12.52998445635425
NOAA 3 [-]              
1 06920U 73086A   08198.87222788 -.00000030  00000-0  10000-3 0   260
2 06920 101.7549 226.9769 0006633  82.7326 277.4493 12.40290230570701
NOAA 4 [-]              
1 07529U 74089A   08197.96438936 -.00000028  00000-0  10000-3 0   574
2 07529 101.4800 228.5171 0008801 256.4793 103.5297 12.53058738539936
NOAA 5 [-]              
1 09057U 76077A   08198.65476848 -.00000031  00000-0  10000-3 0  9126
2 09057 101.9716 242.7248 0009284 254.8459 105.1568 12.37869179444963
NOAA 6 [P]              
1 11416U 79057A   08197.58795835  .00000022  00000-0  24238-4 0  6024
2 11416  98.4263 216.4833 0010193 174.8199 185.3099 14.31873312513543
NOAA 7 [-]              
1 12553U 81059A   08198.47536059 -.00000002  00000-0  20182-4 0  7284
2 12553  98.6012 156.1620 0011027 198.4562 161.6214 14.16748539397997
NOAA 8 [-]              
1 13923U 83022A   08197.74340906 -.00000014  00000-0  11821-4 0  6159
2 13923  98.5966 227.6611 0016149  17.2022 342.9706 14.27676395316846
NOAA 9 [P]              
1 15427U 84123A   08198.48294230 -.00000034  00000-0  38034-5 0  2663
2 15427  98.4349 208.1016 0014215 309.0583  50.9322 14.15294321217471
NOAA 10 [-]             
1 16969U 86073A   08198.52614260  .00000016  00000-0  24826-4 0  2049
2 16969  98.7213 220.4354 0013258  94.9830 265.2885 14.27364086135629
NOAA 11 [-]             
1 19531U 88089A   08198.30315785  .00000235  00000-0  14448-3 0  2380
2 19531  98.7981 287.2232 0011400 349.5571  10.5397 14.14873621 22027
NOAA 12 [B]             
1 21263U 91032A   08198.54080049  .00000057  00000-0  42989-4 0  7553
2 21263  98.7659 200.4899 0013275  43.6945 316.5284 14.25538829892578
NOAA 13 [-]             
1 22739U 93050A   08197.94276872 -.00000031  00000-0  71424-5 0  4803
2 22739  98.9006 275.0803 0010430  71.9109 288.3197 14.12202275769508
NOAA 14 [-]             
1 23455U 94089A   08198.49429139 -.00000320  00000-0 -14530-3 0  2240
2 23455  98.9452 270.7532 0010274  65.0623 295.1634 14.13743213698495
NOAA 15 [+]             
1 25338U 98030A   08198.50273010  .00000182  00000-0  96386-4 0  5459
2 25338  98.5550 189.6169 0009970 322.1223  37.9248 14.24715118528973
NOAA 16 [+]             
1 26536U 00055A   08198.53338192  .00000241  00000-0  15556-3 0   153
2 26536  99.1565 188.3534 0011161 139.1787 221.0231 14.12490199402914
NOAA 17 [+]             
1 27453U 02032A   08198.49357863  .00000218  00000-0  11341-3 0    84
2 27453  98.5332 262.2698 0012233  27.7826 332.4011 14.23988907314970
NOAA 18 [+]             
1 28654U 05018A   08198.47730074  .00000060  00000-0  57795-4 0  5042
2 28654  98.8664 139.0476 0013384 229.0701 130.9321 14.11176738162601
